#cP2023  8 24  0  0  0.00000000      96 ORBIT IGS20 HLM  IGS
## 2276 345600.00000000   900.00000000 60180 0.0000000000000
+   32   G01G02G03G04G05G06G07G08G09G10G11G12G13G14G15G16G17
+        G18G19G20G21G22G23G24G25G26G27G28G29G30G31G32  0  0
+          0  0  0  0  0  0  0  0  0  0  0  0  0  0  0  0  0
+          0  0  0  0  0  0  0  0  0  0  0  0  0  0  0  0  0
+          0  0  0  0  0  0  0  0  0  0  0  0  0  0  0  0  0
++         2  2  2  3  2  2  2  2  2  2  2  2  2  2  2  2  2
++         2  2  2  2  2  2  2  2  2  2  2  2  2  2  2  0  0
++         0  0  0  0  0  0  0  0  0  0  0  0  0  0  0  0  0
++         0  0  0  0  0  0  0  0  0  0  0  0  0  0  0  0  0
++         0  0  0  0  0  0  0  0  0  0  0  0  0  0  0  0  0
%c G  cc GPS ccc cccc cccc cccc cccc ccccc ccccc ccccc ccccc
%c cc cc ccc ccc cccc cccc cccc cccc ccccc ccccc ccccc ccccc
%f  1.2500000  1.025000000  0.00000000000  0.000000000000000
%f  0.0000000  0.000000000  0.00000000000  0.000000000000000
%i    0    0    0    0      0      0      0      0         0
%i    0    0    0    0      0      0      0      0         0
/* RAPID ORBIT COMBINATION FROM WEIGHTED AVERAGE OF:        
/* cod emr esa gfz grg jgx jpl ngs sio usn whu              
/* REFERENCED TO IGS TIME (IGST) AND TO WEIGHTED MEAN POLE: 
/* PCV:IGS20      OL/AL:FES2014b NONE     Y  ORB:CMB CLK:CMB
*  2023  8 24 17 15  0.00000000
PG01 -11471.021237  20298.570519 -12735.272512    167.466574  5  6  6  98       
PG02 -15925.364974  20532.084804  -4535.332474   -561.872410  7  6  8  83       
PG03  -2152.765004  14908.790097 -22028.173387   -171.181803  5  7  3  73       
PG04  -1249.085941  25450.700976  -7258.817111    135.414027  7  9  5 108       
PG05  18036.605597  -7451.437486  17881.486031   -140.055863  5  6    107       
PG06  19059.079196   -148.412365 -18477.995324    561.603879  3  8  4 115       
PG07   4745.841359  15837.958440  21169.996385     86.619628  6  5  2  93       
PG08  -7739.789265  19072.286734  16487.990150   -138.796112     6  5  95       
PG09   6482.324651  25681.823948   1490.829751    -78.179791  6  9  6  86       
PG10 -23912.217652 -11298.838098   4092.746071    -50.594502  5  4  5  84       
PG11  22873.322606 -11151.912919  -7506.595066   -335.874642  6  6  4 116       
PG12   7344.968918 -13431.721743 -21975.580769   -416.727179  7  7  2 113       
PG13  13152.374077 -11164.360670  19942.042998    564.124894  8  8  6  92       
PG14  21900.242424  13626.268403   6714.827139    163.978588  6  5  5 109       
PG15   4944.892824 -20661.352563  15313.168545     70.859137  7  9  5 107       
PG16 -21832.518702   1551.466053  15048.779615   -463.898408  5  6  5 100       
PG17  12876.643711  16558.866871 -15790.986678    723.140919  5  7  5 105       
PG18  -6230.745062 -13966.304957  21697.845088   -393.848357  6  8  7  89       
PG19  14753.539140   8785.271668 -20558.398450    362.077597  5  5  5 114       
PG20  24693.886001  -2502.788446   9222.853010    415.506262  4  5  3  91       
PG21 -17104.775223  19502.497026  -2033.154752    150.183363  6  7  8 117       
PG22  24072.453235  10834.619792   -267.139317    135.364366  5  6  6 115       
PG23 -15660.672210 -15593.624049  14861.407798     59.187822     8  4  74       
PG24  13156.885579 -21629.286987  -7647.266942   -299.446585  5  6  5 112       
PG25  -8155.060029 -17069.978462 -19060.870079    463.992995  3  7  5 106       
PG26 -26051.837310  -3358.073227   4927.174423    231.620011  4  5  6  78       
PG27 -13674.779248   7014.388262  21362.440334    -27.719182  4  5  3  98       
PG28 -18224.211097  -1526.617755 -19282.790694     -1.387289  6  7  4  95       
PG29  -3907.493117 -26166.424413   1542.467619   -608.346357  7  7  3  90       
PG30  13809.059512   8701.881978  21109.599956   -493.771882  6  4  4  94       
PG31 -22687.809794   7287.917920 -12341.740417   -222.352968  1  6  6  70       
PG32 -15215.002177 -12089.314672 -18014.253811   -546.313947  5  6  6  42       
*  2023  8 24 17 30  0.00000000
PG01 -12531.915387  21020.573160 -10222.915746    167.465459  4  7  7  96       
PG02 -16390.203692  20664.488215  -1685.140092   -561.868764  7  7  8  89       
PG03  -4528.103606  14159.678525 -22152.942247   -171.164929  5  7  4  83       
PG04  -1660.895612  24524.653262  -9894.645328    135.424262  7  9  6 108       
PG05  19903.814081  -6803.145990  16096.864970   -140.056724  5  5    101       
PG06  17477.298346   1381.978355 -19921.236945    561.598795  3  8  4 115       
PG07   2985.187340  17304.914552  20262.130651     86.609790  6  5  2  75       
PG08  -8405.353759  17164.398302  18199.269804   -138.797501     7  4  87       
PG09   6223.483821  25761.890597  -1360.056275    -78.170856  5  9  6  88       
PG10 -23289.151338 -11279.873278   6876.875250    -50.595953  6  5  6  80       
PG11  22237.822533 -10333.735772 -10129.681313   -335.890546  6  5  4 118       
PG12   9600.355933 -12509.862870 -21636.680292   -416.731271  7  7  1 114       
PG13  13429.288258  -8799.070298  20926.994040    564.128981  8  8  6  90       
PG14  20952.739386  13570.584966   9331.960371    163.988953  5  6  5 107       
PG15   5857.340172 -18919.414828  17106.209875     70.862467  6  9  6  90       
PG16 -23271.382893    769.991965  12878.155674   -463.893884  5  6  6  88       
PG17  12971.592020  18322.245465 -13671.992782    723.140904  5  8  5  95       
PG18  -4361.306242 -15543.203305  21057.271568   -393.860205  6  9  7  71       
PG19  14926.548135  11009.929475 -19342.484207    362.081688  5  6  5 113       
PG20  25553.454111  -2102.404554   6577.100213    415.503997  4  5  3  96       
PG21 -17427.685269  19375.634976    878.068188    150.182529  6  8  8 127       
PG22  23890.303459  11049.660614   2605.900268    135.357188  5  6  6 114       
PG23 -13886.780054 -15234.055012  16849.390761     59.192208  1  9  5  47       
PG24  13874.986429 -21907.847822  -4947.423421   -299.456667  5  6  6 100       
PG25  -6033.177253 -16538.255708 -20276.661241    463.994891  3  7  5 104       
PG26 -26387.312145  -3750.750643   2187.248487    231.618592  4  5  6  69       
PG27 -14270.344289   4567.437022  21667.200474    -27.725174  4  5  2  86       
PG28 -16676.843048  -3188.905977 -20446.073480     -1.390799  6  7  5  95       
PG29  -3690.737757 -26213.832129  -1348.568809   -608.347443  6  7  3  95       
PG30  12035.503270  10341.345665  21431.466563   -493.769002  6  4  4  70       
PG31 -21681.512461   6162.078230 -14557.764199   -222.353533  2  6  6  89       
PG32 -15515.216823 -14059.395107 -16279.393891   -546.319874  5  6  7 100       
*  2023  8 24 17 45  0.00000000
PG01 -13344.777851  21592.378788  -7533.894925    167.464348  4  7  7  83       
PG02 -16636.356558  20571.079511   1194.540743   -561.864621  6  7  8  87       
PG03  -6935.562268  13545.122753 -21901.581234   -171.148089  5  7  4  94       
PG04  -2189.730422  23340.332844 -12358.975068    135.434485  7 10  6  91       
PG05  21586.597933  -6299.236534  14032.919105   -140.058334  5  4    101       
PG06  15882.533574   3103.209359 -21020.793587    561.593706  3  7  5  93       
PG07   1380.632903  18777.656385  19015.357844     86.600059  5  6  2  88       
PG08  -9218.834954  15126.101744  19591.338528   -138.799405  1  7  4  92       
PG09   5875.071931  25547.625931  -4187.483291    -78.161950  5 10  6  79       
PG10 -22369.407643 -11221.095938   9545.476720    -50.597456  6  6  5  81       
PG11  21436.126746  -9286.910081 -12577.864834   -335.906464  6  5  4 118       
PG12  11847.572725 -11727.331506 -20934.282261   -416.735064  7  6  2  96       
PG13  13843.369050  -6362.263703  21544.296018    564.133243  8  8  6 101       
PG14  19728.670090  13484.529455  11790.105708    163.999335  5  7  5 108       
PG15   6926.940547 -17048.416375  18591.550177     70.865773  6  9  6  96       
PG16 -24503.394383    154.140037  10487.060690   -463.889203  5  6  6  89       
PG17  13106.317099  19823.668119 -11310.233394    723.141047  5  8  5  76       
PG18  -2644.790498 -17154.057454  20053.277002   -393.871992  6  9  6  84       
PG19  15194.883700  13068.271317 -17802.498786    362.086327  5  7  5  84       
PG20  26126.347569  -1768.616672   3816.992056    415.502350  4  6  3 106       
PG21 -17540.738969  19007.910599   3773.382235    150.181651  5  7  8 135       
PG22  23415.646411  11162.645175   5433.575421    135.350645  5  6  5 122       
PG23 -11891.276749 -14927.151687  18549.477812     59.196611  1  9  5  77       
PG24  14386.414224 -21977.034596  -2160.911105   -299.466796  5  6  6 104       
PG25  -3772.254946 -16089.992178 -21154.782901    463.996814  3  7  5  95       
PG26 -26437.630249  -4070.890400   -589.573874    231.617135  4  4  6  56       
PG27 -14995.314983   2146.252277  21589.891726    -27.731123  4  5  1  91       
PG28 -15143.554093  -5012.549168 -21258.195288     -1.394368  7  7  6  97       
PG29  -3411.786032 -25952.119765  -4216.258155   -608.347977  6  7  4  92       
PG30  10330.739287  12077.851283  21388.948126   -493.766126  6  4  4  78       
PG31 -20568.316905   4820.470462 -16530.782874   -222.354078  2  5  6  98       
PG32 -15857.860255 -15804.438436 -14263.153396   -546.325792  5  7  7  87       
EOF
